BRO-1                   
1 44495U 19054A   26192.02387806  .00769229  32895-3  78636-3 0  9997
2 44495  44.9825 144.7336 0008593 157.4165 202.7129 16.09941046383559
BRO-5                   
1 51061U 22002CF  26192.16795141  .00021051  00000+0  39392-3 0  9990
2 51061  97.2993 266.0696 0004938 218.9294 141.1602 15.48720854249967
BRO-6                   
1 52422U 22047AE  26192.19632694  .00028669  00000+0  47130-3 0  9998
2 52422  97.3392 283.7408 0003035 333.3806  26.7291 15.52341825234876
BRO-8                   
1 55011U 23001C   26192.19612992  .00022512  00000+0  39452-3 0  9994
2 55011  97.3196 257.7490 0005302  53.5092 306.6648 15.50576769195927
BRO-11                  
1 58264U 23174J   26192.15836985  .00002509  00000+0  95652-4 0  9993
2 58264  97.3901 268.7843 0011854 119.9237 240.3181 15.27568231148412
BRO-13                  
1 59107U 24043K   26192.22835126  .00000645  00000+0  61825-4 0  9994
2 59107  97.8518 323.3271 0007634 278.3602  81.6754 14.96643936128217
BRO-12                  
1 59108U 24043L   26192.22054022  .00000428  00000+0  42498-4 0  9997
2 59108  97.8505 323.4878 0007089 273.2024  86.8386 14.96888882128235
BRO-14                  
1 60551U 24149CM  26192.07051880  .00000499  00000+0  49294-4 0  9999
2 60551  97.6860 267.4189 0007059  29.0628 331.0985 14.96228614103567
BRO-15                  
1 60553U 24149CP  26190.44813664  .00000727  00000+0  69494-4 0  9994
2 60553  97.6798 265.4070 0008525  23.7668 336.3946 14.96220766103330
BRO-18                  
1 64550U 25135Y   26192.24730162  .00002441  00000+0  10951-3 0  9990
2 64550  97.4647 307.0943 0002321 120.9439 239.2026 15.22154524 58537
BRO-17                  
1 66672U 25276G   26190.98908799  .00001784  00000+0  90678-4 0  9999
2 66672  97.4185 263.6580 0005100 283.2606  76.8059 15.18135853 33850
BRO-20                  
1 66674U 25276J   26192.15197184  .00001998  00000+0  10067-3 0  9990
2 66674  97.4164 264.7864 0004628 282.1445  77.9270 15.18312707 34032
BRO-19                  
1 68422U 26067G   26191.30488085  .00002622  00000+0  12865-3 0  9994
2 68422  97.4483 149.4327 0002355 112.9741 247.1742 15.18969133 15457
BRO-21                  
1 69007U 26100AD  26189.69638385  .00001614  00000+0  74556-4 0  9997
2 69007  97.4020  87.2384 0007538 353.3605   6.7530 15.21599743 10071
BRO-22                  
1 69504U 26132C   26192.17128336  .00000651  00000+0  57304-4 0  9993
2 69504  97.6831 255.5441 0016121 195.4200 164.6534 14.99798641  4379
