{"fetched_at":"2026-07-11T09:24:10.628Z","source":"https://celestrak.org/NORAD/elements/gp.php?NAME=BRO&FORMAT=JSON","constellation":"unseenlabs","records":[{"OBJECT_NAME":"BRO-1","OBJECT_ID":"2019-054A","EPOCH":"2026-07-11T00:34:23.064384","CLASSIFICATION_TYPE":"U","MEAN_MOTION":16.09941046,"ECCENTRICITY":0.0008593,"INCLINATION":44.9825,"RA_OF_ASC_NODE":144.7336,"ARG_OF_PERICENTER":157.4165,"MEAN_ANOMALY":202.7129,"EPHEMERIS_TYPE":0,"NORAD_CAT_ID":44495,"ELEMENT_SET_NO":999,"REV_AT_EPOCH":38355,"BSTAR":0.00078636,"MEAN_MOTION_DOT":0.00769229,"MEAN_MOTION_DDOT":0.00032895},{"OBJECT_NAME":"BRO-5","OBJECT_ID":"2022-002CF","EPOCH":"2026-07-11T04:01:51.001824","CLASSIFICATION_TYPE":"U","MEAN_MOTION":15.48720854,"ECCENTRICITY":0.0004938,"INCLINATION":97.2993,"RA_OF_ASC_NODE":266.0696,"ARG_OF_PERICENTER":218.9294,"MEAN_ANOMALY":141.1602,"EPHEMERIS_TYPE":0,"NORAD_CAT_ID":51061,"ELEMENT_SET_NO":999,"REV_AT_EPOCH":24996,"BSTAR":0.00039392,"MEAN_MOTION_DOT":0.00021051,"MEAN_MOTION_DDOT":0},{"OBJECT_NAME":"BRO-6","OBJECT_ID":"2022-047AE","EPOCH":"2026-07-11T04:42:42.647616","CLASSIFICATION_TYPE":"U","MEAN_MOTION":15.52341825,"ECCENTRICITY":0.0003035,"INCLINATION":97.3392,"RA_OF_ASC_NODE":283.7408,"ARG_OF_PERICENTER":333.3806,"MEAN_ANOMALY":26.7291,"EPHEMERIS_TYPE":0,"NORAD_CAT_ID":52422,"ELEMENT_SET_NO":999,"REV_AT_EPOCH":23487,"BSTAR":0.0004713,"MEAN_MOTION_DOT":0.00028669,"MEAN_MOTION_DDOT":0},{"OBJECT_NAME":"BRO-8","OBJECT_ID":"2023-001C","EPOCH":"2026-07-11T04:42:25.625088","CLASSIFICATION_TYPE":"U","MEAN_MOTION":15.50576769,"ECCENTRICITY":0.0005302,"INCLINATION":97.3196,"RA_OF_ASC_NODE":257.749,"ARG_OF_PERICENTER":53.5092,"MEAN_ANOMALY":306.6648,"EPHEMERIS_TYPE":0,"NORAD_CAT_ID":55011,"ELEMENT_SET_NO":999,"REV_AT_EPOCH":19592,"BSTAR":0.00039452,"MEAN_MOTION_DOT":0.00022512,"MEAN_MOTION_DDOT":0},{"OBJECT_NAME":"BRO-11","OBJECT_ID":"2023-174J","EPOCH":"2026-07-11T03:48:03.155040","CLASSIFICATION_TYPE":"U","MEAN_MOTION":15.27568231,"ECCENTRICITY":0.0011854,"INCLINATION":97.3901,"RA_OF_ASC_NODE":268.7843,"ARG_OF_PERICENTER":119.9237,"MEAN_ANOMALY":240.3181,"EPHEMERIS_TYPE":0,"NORAD_CAT_ID":58264,"ELEMENT_SET_NO":999,"REV_AT_EPOCH":14841,"BSTAR":0.000095652,"MEAN_MOTION_DOT":0.00002509,"MEAN_MOTION_DDOT":0},{"OBJECT_NAME":"BRO-13","OBJECT_ID":"2024-043K","EPOCH":"2026-07-11T05:28:49.548864","CLASSIFICATION_TYPE":"U","MEAN_MOTION":14.96643936,"ECCENTRICITY":0.0007634,"INCLINATION":97.8518,"RA_OF_ASC_NODE":323.3271,"ARG_OF_PERICENTER":278.3602,"MEAN_ANOMALY":81.6754,"EPHEMERIS_TYPE":0,"NORAD_CAT_ID":59107,"ELEMENT_SET_NO":999,"REV_AT_EPOCH":12821,"BSTAR":0.000061825,"MEAN_MOTION_DOT":0.00000645,"MEAN_MOTION_DDOT":0},{"OBJECT_NAME":"BRO-12","OBJECT_ID":"2024-043L","EPOCH":"2026-07-11T05:17:34.675008","CLASSIFICATION_TYPE":"U","MEAN_MOTION":14.96888882,"ECCENTRICITY":0.0007089,"INCLINATION":97.8505,"RA_OF_ASC_NODE":323.4878,"ARG_OF_PERICENTER":273.2024,"MEAN_ANOMALY":86.8386,"EPHEMERIS_TYPE":0,"NORAD_CAT_ID":59108,"ELEMENT_SET_NO":999,"REV_AT_EPOCH":12823,"BSTAR":0.000042498,"MEAN_MOTION_DOT":0.00000428,"MEAN_MOTION_DDOT":0},{"OBJECT_NAME":"BRO-14","OBJECT_ID":"2024-149CM","EPOCH":"2026-07-11T01:41:32.824320","CLASSIFICATION_TYPE":"U","MEAN_MOTION":14.96228614,"ECCENTRICITY":0.0007059,"INCLINATION":97.686,"RA_OF_ASC_NODE":267.4189,"ARG_OF_PERICENTER":29.0628,"MEAN_ANOMALY":331.0985,"EPHEMERIS_TYPE":0,"NORAD_CAT_ID":60551,"ELEMENT_SET_NO":999,"REV_AT_EPOCH":10356,"BSTAR":0.000049294,"MEAN_MOTION_DOT":0.00000499,"MEAN_MOTION_DDOT":0},{"OBJECT_NAME":"BRO-15","OBJECT_ID":"2024-149CP","EPOCH":"2026-07-09T10:45:19.005696","CLASSIFICATION_TYPE":"U","MEAN_MOTION":14.96220766,"ECCENTRICITY":0.00085255,"INCLINATION":97.6798,"RA_OF_ASC_NODE":265.407,"ARG_OF_PERICENTER":23.7668,"MEAN_ANOMALY":336.3946,"EPHEMERIS_TYPE":0,"NORAD_CAT_ID":60553,"ELEMENT_SET_NO":999,"REV_AT_EPOCH":10333,"BSTAR":0.000069493641,"MEAN_MOTION_DOT":0.00000727,"MEAN_MOTION_DDOT":0},{"OBJECT_NAME":"BRO-18","OBJECT_ID":"2025-135Y","EPOCH":"2026-07-11T05:56:06.859968","CLASSIFICATION_TYPE":"U","MEAN_MOTION":15.22154524,"ECCENTRICITY":0.0002321,"INCLINATION":97.4647,"RA_OF_ASC_NODE":307.0943,"ARG_OF_PERICENTER":120.9439,"MEAN_ANOMALY":239.2026,"EPHEMERIS_TYPE":0,"NORAD_CAT_ID":64550,"ELEMENT_SET_NO":999,"REV_AT_EPOCH":5853,"BSTAR":0.00010951,"MEAN_MOTION_DOT":0.00002441,"MEAN_MOTION_DDOT":0},{"OBJECT_NAME":"BRO-17","OBJECT_ID":"2025-276G","EPOCH":"2026-07-09T23:44:17.202336","CLASSIFICATION_TYPE":"U","MEAN_MOTION":15.18135853,"ECCENTRICITY":0.00051003,"INCLINATION":97.4185,"RA_OF_ASC_NODE":263.658,"ARG_OF_PERICENTER":283.2606,"MEAN_ANOMALY":76.8059,"EPHEMERIS_TYPE":0,"NORAD_CAT_ID":66672,"ELEMENT_SET_NO":999,"REV_AT_EPOCH":3385,"BSTAR":0.00009067806,"MEAN_MOTION_DOT":0.00001784,"MEAN_MOTION_DDOT":0},{"OBJECT_NAME":"BRO-20","OBJECT_ID":"2025-276J","EPOCH":"2026-07-11T03:38:50.366976","CLASSIFICATION_TYPE":"U","MEAN_MOTION":15.18312707,"ECCENTRICITY":0.0004628,"INCLINATION":97.4164,"RA_OF_ASC_NODE":264.7864,"ARG_OF_PERICENTER":282.1445,"MEAN_ANOMALY":77.927,"EPHEMERIS_TYPE":0,"NORAD_CAT_ID":66674,"ELEMENT_SET_NO":999,"REV_AT_EPOCH":3403,"BSTAR":0.00010067,"MEAN_MOTION_DOT":0.00001998,"MEAN_MOTION_DDOT":0},{"OBJECT_NAME":"BRO-19","OBJECT_ID":"2026-067G","EPOCH":"2026-07-10T07:19:01.705440","CLASSIFICATION_TYPE":"U","MEAN_MOTION":15.18969133,"ECCENTRICITY":0.00023559,"INCLINATION":97.4483,"RA_OF_ASC_NODE":149.4327,"ARG_OF_PERICENTER":112.9741,"MEAN_ANOMALY":247.1742,"EPHEMERIS_TYPE":0,"NORAD_CAT_ID":68422,"ELEMENT_SET_NO":999,"REV_AT_EPOCH":1545,"BSTAR":0.00012865236,"MEAN_MOTION_DOT":0.00002622,"MEAN_MOTION_DDOT":0},{"OBJECT_NAME":"BRO-21","OBJECT_ID":"2026-100AD","EPOCH":"2026-07-08T16:42:47.564640","CLASSIFICATION_TYPE":"U","MEAN_MOTION":15.21599743,"ECCENTRICITY":0.00075385,"INCLINATION":97.402,"RA_OF_ASC_NODE":87.2384,"ARG_OF_PERICENTER":353.3605,"MEAN_ANOMALY":6.753,"EPHEMERIS_TYPE":0,"NORAD_CAT_ID":69007,"ELEMENT_SET_NO":999,"REV_AT_EPOCH":1007,"BSTAR":0.000074555828,"MEAN_MOTION_DOT":0.00001614,"MEAN_MOTION_DDOT":0},{"OBJECT_NAME":"BRO-22","OBJECT_ID":"2026-132C","EPOCH":"2026-07-11T04:06:38.882304","CLASSIFICATION_TYPE":"U","MEAN_MOTION":14.99798641,"ECCENTRICITY":0.0016121,"INCLINATION":97.6831,"RA_OF_ASC_NODE":255.5441,"ARG_OF_PERICENTER":195.42,"MEAN_ANOMALY":164.6534,"EPHEMERIS_TYPE":0,"NORAD_CAT_ID":69504,"ELEMENT_SET_NO":999,"REV_AT_EPOCH":437,"BSTAR":0.000057304,"MEAN_MOTION_DOT":0.00000651,"MEAN_MOTION_DDOT":0}]}
